{"fetched_at":"2026-07-17T06:38:28.368Z","source":"https://celestrak.org/NORAD/elements/gp.php?NAME=O3B&FORMAT=JSON","constellation":"o3b-mpower","records":[{"OBJECT_NAME":"O3B MPOWER F1","OBJECT_ID":"2022-174A","EPOCH":"2026-07-16T20:03:34.619904","CLASSIFICATION_TYPE":"U","MEAN_MOTION":5.00114727,"ECCENTRICITY":0.0006647,"INCLINATION":0.049,"RA_OF_ASC_NODE":339.2953,"ARG_OF_PERICENTER":146.6609,"MEAN_ANOMALY":69.5893,"EPHEMERIS_TYPE":0,"NORAD_CAT_ID":54755,"ELEMENT_SET_NO":999,"REV_AT_EPOCH":6684,"BSTAR":0,"MEAN_MOTION_DOT":-2.5e-7,"MEAN_MOTION_DDOT":0},{"OBJECT_NAME":"O3B MPOWER F2","OBJECT_ID":"2022-174B","EPOCH":"2026-07-14T16:40:54.538752","CLASSIFICATION_TYPE":"U","MEAN_MOTION":5.0011492,"ECCENTRICITY":0.00057894,"INCLINATION":0.0451,"RA_OF_ASC_NODE":339.8088,"ARG_OF_PERICENTER":128.0659,"MEAN_ANOMALY":252.185,"EPHEMERIS_TYPE":0,"NORAD_CAT_ID":54756,"ELEMENT_SET_NO":999,"REV_AT_EPOCH":6682,"BSTAR":0,"MEAN_MOTION_DOT":-2.3e-7,"MEAN_MOTION_DDOT":0},{"OBJECT_NAME":"O3B MPOWER F4","OBJECT_ID":"2023-059A","EPOCH":"2026-07-16T08:36:08.303616","CLASSIFICATION_TYPE":"U","MEAN_MOTION":5.00115393,"ECCENTRICITY":0.0007732,"INCLINATION":0.0629,"RA_OF_ASC_NODE":349.7471,"ARG_OF_PERICENTER":128.2686,"MEAN_ANOMALY":242.0585,"EPHEMERIS_TYPE":0,"NORAD_CAT_ID":56367,"ELEMENT_SET_NO":999,"REV_AT_EPOCH":6006,"BSTAR":0,"MEAN_MOTION_DOT":-2.5e-7,"MEAN_MOTION_DDOT":0},{"OBJECT_NAME":"O3B MPOWER F3","OBJECT_ID":"2023-059B","EPOCH":"2026-07-16T18:59:31.773408","CLASSIFICATION_TYPE":"U","MEAN_MOTION":5.00116391,"ECCENTRICITY":0.0006663,"INCLINATION":0.0636,"RA_OF_ASC_NODE":348.9026,"ARG_OF_PERICENTER":122.8203,"MEAN_ANOMALY":248.344,"EPHEMERIS_TYPE":0,"NORAD_CAT_ID":56368,"ELEMENT_SET_NO":999,"REV_AT_EPOCH":5620,"BSTAR":0,"MEAN_MOTION_DOT":-2.5e-7,"MEAN_MOTION_DDOT":0},{"OBJECT_NAME":"O3B MPOWER F5","OBJECT_ID":"2023-175A","EPOCH":"2026-07-16T07:01:26.478048","CLASSIFICATION_TYPE":"U","MEAN_MOTION":5.00115806,"ECCENTRICITY":0.0005522,"INCLINATION":0.0524,"RA_OF_ASC_NODE":9.1024,"ARG_OF_PERICENTER":123.8848,"MEAN_ANOMALY":227.0551,"EPHEMERIS_TYPE":0,"NORAD_CAT_ID":58346,"ELEMENT_SET_NO":999,"REV_AT_EPOCH":5089,"BSTAR":0,"MEAN_MOTION_DOT":-2.5e-7,"MEAN_MOTION_DDOT":0},{"OBJECT_NAME":"O3B MPOWER F6","OBJECT_ID":"2023-175B","EPOCH":"2026-07-16T14:13:58.212768","CLASSIFICATION_TYPE":"U","MEAN_MOTION":5.00115756,"ECCENTRICITY":0.000443,"INCLINATION":0.0541,"RA_OF_ASC_NODE":0.6661,"ARG_OF_PERICENTER":113.0914,"MEAN_ANOMALY":246.2849,"EPHEMERIS_TYPE":0,"NORAD_CAT_ID":58347,"ELEMENT_SET_NO":999,"REV_AT_EPOCH":4981,"BSTAR":0,"MEAN_MOTION_DOT":-2.5e-7,"MEAN_MOTION_DDOT":0},{"OBJECT_NAME":"O3B MPOWER F7","OBJECT_ID":"2024-244A","EPOCH":"2026-07-16T15:49:35.398272","CLASSIFICATION_TYPE":"U","MEAN_MOTION":5.00115301,"ECCENTRICITY":0.0005928,"INCLINATION":0.0658,"RA_OF_ASC_NODE":342.6004,"ARG_OF_PERICENTER":128.4491,"MEAN_ANOMALY":249.0099,"EPHEMERIS_TYPE":0,"NORAD_CAT_ID":62362,"ELEMENT_SET_NO":999,"REV_AT_EPOCH":2800,"BSTAR":0,"MEAN_MOTION_DOT":-2.5e-7,"MEAN_MOTION_DDOT":0},{"OBJECT_NAME":"O3B MPOWER F8","OBJECT_ID":"2024-244B","EPOCH":"2026-07-16T10:14:09.403008","CLASSIFICATION_TYPE":"U","MEAN_MOTION":5.00115012,"ECCENTRICITY":0.0005743,"INCLINATION":0.0146,"RA_OF_ASC_NODE":5.849,"ARG_OF_PERICENTER":97.7266,"MEAN_ANOMALY":256.4842,"EPHEMERIS_TYPE":0,"NORAD_CAT_ID":62363,"ELEMENT_SET_NO":999,"REV_AT_EPOCH":2233,"BSTAR":0,"MEAN_MOTION_DOT":-2.5e-7,"MEAN_MOTION_DDOT":0},{"OBJECT_NAME":"O3B MPOWER F9","OBJECT_ID":"2025-153A","EPOCH":"2026-07-15T08:39:00.821952","CLASSIFICATION_TYPE":"U","MEAN_MOTION":5.00115544,"ECCENTRICITY":0.00067313,"INCLINATION":0.0613,"RA_OF_ASC_NODE":5.5162,"ARG_OF_PERICENTER":126.663,"MEAN_ANOMALY":227.8743,"EPHEMERIS_TYPE":0,"NORAD_CAT_ID":64866,"ELEMENT_SET_NO":999,"REV_AT_EPOCH":2097,"BSTAR":0,"MEAN_MOTION_DOT":-2.4e-7,"MEAN_MOTION_DDOT":0},{"OBJECT_NAME":"O3B MPOWER F10","OBJECT_ID":"2025-153B","EPOCH":"2026-07-16T17:25:01.656768","CLASSIFICATION_TYPE":"U","MEAN_MOTION":5.0011491,"ECCENTRICITY":0.0002439,"INCLINATION":0.0586,"RA_OF_ASC_NODE":2.0175,"ARG_OF_PERICENTER":245.7813,"MEAN_ANOMALY":112.1712,"EPHEMERIS_TYPE":0,"NORAD_CAT_ID":64867,"ELEMENT_SET_NO":999,"REV_AT_EPOCH":2351,"BSTAR":0,"MEAN_MOTION_DOT":-2.5e-7,"MEAN_MOTION_DDOT":0}]}
