O3B MPOWER F1           
1 54755U 22174A   26197.83581736 -.00000025  00000+0  00000+0 0  9994
2 54755   0.0490 339.2953 0006647 146.6609  69.5893  5.00114727 66841
O3B MPOWER F2           
1 54756U 22174B   26195.69507568 -.00000023  00000+0  00000+0 0  9996
2 54756   0.0451 339.8088 0005789 128.0659 252.1850  5.00114920 66825
O3B MPOWER F4           
1 56367U 23059A   26197.35842944 -.00000025  00000+0  00000+0 0  9996
2 56367   0.0629 349.7471 0007732 128.2686 242.0585  5.00115393 60068
O3B MPOWER F3           
1 56368U 23059B   26197.79133997 -.00000025  00000+0  00000+0 0  9996
2 56368   0.0636 348.9026 0006663 122.8203 248.3440  5.00116391 56200
O3B MPOWER F5           
1 58346U 23175A   26197.29266757 -.00000025  00000+0  00000+0 0  9999
2 58346   0.0524   9.1024 0005522 123.8848 227.0551  5.00115806 50893
O3B MPOWER F6           
1 58347U 23175B   26197.59303487 -.00000025  00000+0  00000+0 0  9995
2 58347   0.0541   0.6661 0004430 113.0914 246.2849  5.00115756 49815
O3B MPOWER F7           
1 62362U 24244A   26197.65943748 -.00000025  00000+0  00000+0 0  9992
2 62362   0.0658 342.6004 0005928 128.4491 249.0099  5.00115301 28001
O3B MPOWER F8           
1 62363U 24244B   26197.42649772 -.00000025  00000+0  00000+0 0  9998
2 62363   0.0146   5.8490 0005743  97.7266 256.4842  5.00115012 22331
O3B MPOWER F9           
1 64866U 25153A   26196.36042618 -.00000024  00000+0  00000+0 0  9995
2 64866   0.0613   5.5162 0006731 126.6630 227.8743  5.00115544 20978
O3B MPOWER F10          
1 64867U 25153B   26197.72571362 -.00000025  00000+0  00000+0 0  9991
2 64867   0.0586   2.0175 0002439 245.7813 112.1712  5.00114910 23512
